# From MPC114603
C/2018 O1 (ATLAS),e,154.0063,87.7656,162.6997,28.08201,0.0066231,0.94448787,10.0977,11/04.0/2022,2000,g 17.0,4.0
# From MPEC 2022-M21
P/2018 P3 (PANSTARRS),e,8.9142,59.1591,305.9726,3.004483,0.1892559,0.41710832,280.9502,11/04.0/2022,2000,g 14.5,4.0
# From MPC114603
P/2018 P4 (PANSTARRS),e,23.1094,353.0623,8.4072,6.683220,0.0570460,0.45062874,83.0558,11/04.0/2022,2000,g 12.0,4.0
# From MPEC 2021-P47
C/2018 P5 (PANSTARRS),e,7.2474,216.2031,131.9387,12.84102,0.0214193,0.64292184,28.8075,11/04.0/2022,2000,g 11.0,4.0
# From MPC118841
C/2018 R3 (Lemmon),e,69.7186,324.6055,112.7480,1560,0.0000160,0.99917706,0.0000,06/07.6931/2019,2000,g  9.5,4.0
# From MPEC 2022-M21
C/2018 R4 (Fuls),e,11.6711,298.5227,345.3244,347.1416,0.0001524,0.99503802,0.0000,03/02.7703/2018,2000,g 14.0,4.0
# From MPC114603
C/2018 R5 (Lemmon),e,103.7491,171.1152,178.1824,22.87963,0.0090060,0.84129937,12.5521,11/04.0/2022,2000,g 11.5,4.0
# From MPEC 2022-QC6
C/2018 S2 (TESS),e,64.1608,85.1039,290.7945,14.35774,0.0181165,0.61878880,26.4208,11/04.0/2022,2000,g  7.5,4.0
# From MPEC 2022-TA0
C/2018 U1 (Lemmon),h,11/03.1745/2021,108.3125,75.4869,180.4773,1.001536,4.993013,2000,5.0,4.0
# From MPC114604
C/2018 V1 (Machholz-Fujikawa-Iwamoto),h,12/02.8341/2018,144.0871,129.0224,89.0591,1.000347,0.389855,2000,12.0,4.0
# From MPC115884
C/2018 V2 (ATLAS),e,159.1675,357.0770,318.9994,25.05335,0.0078597,0.90086823,11.3143,11/04.0/2022,2000,g 15.0,4.0
# From MPC114604
P/2018 VN2 (Leonard),e,18.2625,226.4577,138.8383,4.063971,0.1203035,0.47892244,193.7885,11/04.0/2022,2000,g 15.0,4.0
# From MPEC 2021-P47
A/2018 V3,e,164.9676,308.6902,3.6009,126.9676,0.0006889,0.98943738,0.0000,09/09.0772/2019,2000,g 15.7,2.0
# From MPEC 2022-M21
C/2018 V4 (Africano),e,69.0198,78.2940,359.9376,200.7385,0.0003465,0.98408445,0.0000,03/01.4779/2019,2000,g 12.5,4.0
# From MPEC 2021-P47
P/2018 V5 (Trujillo-Sheppard),e,10.5890,171.2866,260.6596,8.959191,0.0367537,0.47542804,54.8545,11/04.0/2022,2000,g 12.5,4.0
# From MPEC 2021-P47
C/2018 W1 (Catalina),e,83.3614,233.6497,251.2166,21.68022,0.0097636,0.93730179,12.4210,11/04.0/2022,2000,g 15.5,2.0
# From MPEC 2021-P47
C/2018 W2 (Africano),h,09/05.3589/2019,116.6264,181.8162,158.0520,1.000533,1.459912,2000,9.5,4.0
# From MPEC 2022-Q17
A/2018 W3,e,104.8127,251.6694,313.9664,687.0984,0.0000547,0.99375548,0.0000,04/13.0489/2021,2000,g 10.5,2.0
# From MPC119996
C/2018 X2 (Fitzsimmons),e,23.0709,340.8189,161.9618,140.2392,0.0005935,0.98486798,0.0000,07/08.2105/2019,2000,g 12.0,4.0
# From MPC114604
C/2018 X3 (PANSTARRS),e,43.4016,78.8392,359.7388,12.37197,0.0226488,0.78243924,31.7991,11/04.0/2022,2000,g 14.5,4.0
# From MPC118842
C/2018 Y1 (Iwamoto),e,160.4057,147.4966,357.9313,131.7229,0.0006519,0.99025548,0.0000,02/06.1651/2019,2000,g 11.5,4.0
# From MPC114605
P/2018 Y2 (Africano),e,11.6834,297.2201,162.2441,7.453837,0.0484322,0.47907464,67.9193,11/04.0/2022,2000,g 11.5,4.0
# From MPC114605
P/2019 A1 (PANSTARRS),e,13.7490,312.2744,150.7099,5.117170,0.0851450,0.56893098,126.4522,11/04.0/2022,2000,g 16.0,4.0
# From MPEC 2021-P47
P/2019 A2 (ATLAS),e,14.8604,139.4554,323.8683,5.715034,0.0721400,0.38193561,104.2199,11/04.0/2022,2000,g 10.5,4.0
# From MPEC 2022-M21
P/2019 A3 (PANSTARRS),e,15.3749,31.2933,325.6262,3.144791,0.1767325,0.26608340,274.3867,11/04.0/2022,2000,g 16.0,4.0
# From MPEC 2022-L66
P/2019 A4 (PANSTARRS),e,13.3064,119.2433,342.9646,2.613415,0.2332875,0.08707456,332.2102,11/04.0/2022,2000,g 15.0,4.0
# From MPEC 2021-P47
C/2019 A5 (PANSTARRS),e,67.5548,146.6160,355.8275,21.49984,0.0098867,0.70621833,12.3198,11/04.0/2022,2000,g  9.5,4.0
# From MPC114605
P/2019 A6 (Lemmon-PANSTARRS),e,33.2570,280.2117,156.1816,5.358180,0.0794654,0.63972844,121.3574,11/04.0/2022,2000,g 16.0,4.0
# From MPC115884
P/2019 A8 (PANSTARRS),e,2.1926,114.5837,65.9462,4.268584,0.1117579,0.24424266,174.5008,11/04.0/2022,2000,g 16.0,4.0
# From MPC118842
C/2019 A9 (PANSTARRS),e,84.2250,278.3985,237.9258,39.16328,0.0040215,0.96346192,4.8138,11/04.0/2022,2000,g 15.0,4.0
# From MPEC 2022-L66
C/2019 B1 (Africano),e,123.3932,290.3923,174.7779,138.7706,0.0006029,0.98849110,0.0000,03/18.8987/2019,2000,g 16.0,4.0
# From MPC115885
P/2019 B2 (Groeller),e,17.0242,175.7440,1.0605,3.909294,0.1275136,0.36228047,159.6094,11/04.0/2022,2000,g 14.5,4.0
# From MPEC 2022-UY9
C/2019 B3 (PANSTARRS),h,01/20.4379/2021,66.5356,358.4364,263.9590,1.000521,6.824645,2000,5.5,4.0
# From MPEC 2021-P47
C/2019 C1 (ATLAS),e,36.0478,212.3895,319.1042,653.1396,0.0000590,0.98992883,0.0000,05/04.5451/2020,2000,g 10.0,4.0
# From MPEC 2022-O08
C/2019 D1 (Flewelling),e,34.0221,231.6738,70.6523,142.9696,0.0005766,0.98891988,0.0000,05/11.4642/2019,2000,g 13.0,4.0
# From MPEC 2022-UY9
C/2019 E3 (ATLAS),h,11/14.5890/2023,84.2974,347.2520,280.6722,1.000533,10.313240,2000,2.5,4.0
# From MPEC 2022-UY9
C/2019 F1 (ATLAS-Africano),h,06/23.0984/2021,54.1975,38.6877,251.2273,1.003618,3.598128,2000,5.5,4.0
# From MPEC 2021-P47
C/2019 F2 (ATLAS),e,19.2500,175.5060,11.5824,16.64430,0.0145146,0.86508358,16.7325,11/04.0/2022,2000,g 12.0,4.0
# From MPEC 2021-P47
A/2019 G2,e,159.2120,208.1575,82.6092,471.8045,0.0000962,0.99514024,0.0000,12/09.0007/2019,2000,g 16.5,2.0
# From MPEC 2021-F20
A/2019 G3,e,156.8098,49.8767,161.9338,17.21344,0.0138007,0.83438220,19.7448,11/04.0/2022,2000,g 17.1,2.0
# From MPEC 2022-P82
C/2019 G4 (PANSTARRS),h,09/15.9667/2018,138.3652,130.4581,287.8032,1.001934,5.851274,2000,9.5,4.0
# From MPC114607
P/2019 GG21 (PANSTARRS),e,6.0851,340.5629,208.6075,7.470546,0.0482698,0.47197488,61.4800,11/04.0/2022,2000,g 12.0,4.0
# From MPEC 2022-M21
C/2019 H1 (NEOWISE),e,104.4888,269.2529,19.3493,249.2657,0.0002504,0.99259538,0.0000,04/27.9881/2019,2000,g 15.5,4.0
# From MPEC 2022-O08
C/2019 J1 (Lemmon),e,24.5447,98.1383,167.7743,68.46025,0.0017400,0.96371471,2.2720,11/04.0/2022,2000,g 12.0,4.0
# From MPEC 2021-R75
C/2019 J2 (Palomar),e,105.2289,25.5546,98.7139,161.5518,0.0004800,0.98933072,0.0000,07/20.1194/2019,2000,g 13.0,4.0
# From MPC117071
C/2019 J3 (ATLAS),h,08/02.3265/2019,131.3711,270.5842,16.6204,1.000687,2.372764,2000,13.5,4.0
# From MPEC 2022-M21
C/2019 JU6 (ATLAS),e,148.3290,21.7612,95.0116,91161,0.0000000,0.99997755,0.0000,06/01.6104/2019,2000,g 14.5,4.0
# From MPEC 2022-O08
C/2019 K1 (ATLAS),e,87.0760,73.3519,265.7179,28326,0.0000002,0.99992893,0.0000,02/12.8806/2020,2000,g 10.0,4.0
# From MPC119997
C/2019 K4 (Ye),e,105.2966,180.1408,139.8426,1334,0.0000202,0.99830130,0.0000,06/15.7843/2019,2000,g 12.5,4.0
# From MPEC 2021-P47
C/2019 K5 (Young),e,15.3193,177.1265,175.1064,166.5657,0.0004585,0.98775327,0.0000,06/23.0707/2019,2000,g 13.0,4.0
# From MPEC 2021-P47
C/2019 K6 (PANSTARRS),e,132.3829,42.9857,187.6151,1754,0.0000134,0.99776186,0.0000,05/20.1511/2020,2000,g 11.5,4.0
# From MPEC 2022-TA0
C/2019 K7 (Smith),h,06/17.5130/2020,103.5384,307.9502,27.3897,1.000755,4.477936,2000,6.0,4.0
# From MPEC 2021-R75
C/2019 K8 (ATLAS),e,93.1672,291.0382,85.3857,2731,0.0000069,0.99883055,0.0000,07/21.7728/2019,2000,g 11.5,4.0
# From MPC118095
C/2019 L1 (PANSTARRS),e,9.9831,254.4291,50.0415,9.842542,0.0319186,0.70563232,37.6949,11/04.0/2022,2000,g 13.5,4.0
# From MPC115886
C/2019 L2 (NEOWISE),e,152.2103,12.5487,18.8216,24.98008,0.0078943,0.93493377,10.3592,11/04.0/2022,2000,g 16.0,4.0
# From MPEC 2022-UY9
P/2019 LD2 (ATLAS),e,11.6228,179.5973,120.8942,5.230613,0.0823901,0.12698646,79.4446,11/04.0/2022,2000,g  8.5,4.0
# From MPEC 2022-UY9
C/2019 L3 (ATLAS),h,01/09.6282/2022,48.3541,290.7854,171.6123,1.001905,3.554418,2000,4.5,4.0
# From MPC118095
C/2019 LB7 (Kleyna),e,164.2918,3.8846,336.5298,34.60537,0.0048416,0.92807886,6.3846,11/04.0/2022,2000,g 17.0,4.0
# From MPEC 2022-O08
P/2019 M2 (ATLAS),e,12.2745,307.6137,332.5663,3.028360,0.1870221,0.64759716,230.1950,11/04.0/2022,2000,g 21.2,4.0
# From MPC118095
C/2019 M3 (ATLAS),e,99.4962,154.9173,87.8855,12365,0.0000007,0.99980422,0.0000,01/01.3060/2019,2000,g 12.2,4.0
# From MPEC 2022-R68
C/2019 N1 (ATLAS),e,82.4296,13.5736,193.4350,2123,0.0000101,0.99919680,0.0000,12/01.5349/2020,2000,g  7.5,4.0
# From MPEC 2022-A21
C/2019 NJ3 (Lemmon),h,10/22.8240/2020,99.4297,142.4632,246.9031,1.002251,4.362711,2000,9.0,4.0
# From MPEC 2022-ST7
A/2019 O2,e,93.3028,48.2691,129.6522,57.69188,0.0022492,0.83216453,359.6525,11/04.0/2022,2000,g  9.5,2.0
# From MPEC 2022-UY9
C/2019 O3 (Palomar),h,03/09.3800/2021,89.8198,300.4065,60.1187,1.004190,8.820599,2000,3.5,4.0
# From MPEC 2021-P47
A/2019 O4,e,115.0957,354.9079,61.8960,33.20958,0.0051500,0.89019864,5.1364,11/04.0/2022,2000,g 15.5,2.0
# From MPEC 2021-N06
C/2019 Q1 (Lemmon),h,07/20.4586/2020,155.7272,42.4657,56.1691,1.000355,5.001354,2000,8.5,4.0
# From MPC117072
A/2019 Q2,e,159.0316,188.0050,176.3596,57.59963,0.0022546,0.97809643,0.0000,07/22.0281/2019,2000,g 18.0,2.0
# From MPC117072
C/2019 Q3 (PANSTARRS),h,08/21.5051/2018,65.5319,151.3300,152.7806,1.002844,7.263638,2000,8.5,4.0
# From MPC117072
P/2019 S2 (PANSTARRS),e,10.4677,93.1404,217.1294,4.741506,0.0954618,0.20603992,128.9358,11/04.0/2022,2000,g 13.5,4.0
# From MPEC 2022-CN4
P/2019 S3 (PANSTARRS),e,8.6940,150.1577,213.0330,3.415379,0.1561513,0.47122860,181.9253,11/04.0/2022,2000,g 18.3,4.0
# From MPEC 2021-S45
C/2019 S4 (Lemmon),e,92.0649,63.1501,71.3725,231.8565,0.0002792,0.98515214,0.0000,04/07.9472/2020,2000,g 11.0,4.0
# From MPEC 2022-L66
A/2019 T1,e,120.8773,6.9447,91.0724,38.64771,0.0041022,0.88920440,2.7005,11/04.0/2022,2000,g 13.0,2.0
# From MPEC 2022-L66
C/2019 T2 (Lemmon),e,111.4839,155.6462,239.4254,3257,0.0000053,0.99918752,0.0000,04/22.4508/2021,2000,g  9.0,4.0
# From MPEC 2022-UY9
C/2019 T3 (ATLAS),e,121.8470,139.5315,112.4241,3086,0.0000057,0.99807204,0.0000,03/04.0262/2021,2000,g  6.8,4.0
# From MPEC 2022-R68
C/2019 T4 (ATLAS),e,53.6312,199.9389,351.1881,984.2213,0.0000319,0.99568967,0.0000,06/09.0549/2022,2000,g  5.0,4.0
# From MPEC 2021-P47
P/2019 T5 (ATLAS),e,33.4732,247.6357,189.5616,7.996070,0.0435902,0.80939174,51.8925,11/04.0/2022,2000,g 15.0,4.0
# From MPEC 2021-P47
